[{"OBJECT_NAME":"STARLINK-5720","OBJECT_ID":"2023-020BC","EPOCH":"2026-03-09T04:05:53.378016","MEAN_MOTION":15.02528619,"ECCENTRICITY":0.00010835,"INCLINATION":43.0063,"RA_OF_ASC_NODE":354.2756,"ARG_OF_PERICENTER":271.0905,"MEAN_ANOMALY":88.9814,"EPHEMERIS_TYPE":0,"CLASSIFICATION_TYPE":"U","NORAD_CAT_ID":55619,"ELEMENT_SET_NO":999,"REV_AT_EPOCH":16899,"BSTAR":-4.2936389e-5,"MEAN_MOTION_DOT":-7.83e-6,"MEAN_MOTION_DDOT":0},{"OBJECT_NAME":"CZ-4C DEB","OBJECT_ID":"2018-031G","EPOCH":"2026-03-09T17:35:43.516320","MEAN_MOTION":15.0216174,"ECCENTRICITY":0.00078465,"INCLINATION":97.7704,"RA_OF_ASC_NODE":152.3432,"ARG_OF_PERICENTER":232.9325,"MEAN_ANOMALY":127.1182,"EPHEMERIS_TYPE":0,"CLASSIFICATION_TYPE":"U","NORAD_CAT_ID":43265,"ELEMENT_SET_NO":999,"REV_AT_EPOCH":42950,"BSTAR":0.00075767681,"MEAN_MOTION_DOT":9.924e-5,"MEAN_MOTION_DDOT":0}]
